NORAD_CAT_ID,OBJECT_NAME,OBJECT_TYPE,EPOCH,MEAN_MOTION,ECCENTRICITY,INCLINATION,RA_OF_ASC_NODE,ARG_OF_PERICENTER,MEAN_ANOMALY,BSTAR,MEAN_MOTION_DOT,MEAN_MOTION_DDOT,TLE_LINE0,TLE_LINE1,TLE_LINE2,SEMIMAJOR_AXIS,PERIOD,APOGEE,PERIGEE,DECAYED
54053.0,STARLINK-5176,PAYLOAD,2023-03-29 20:03:19,15.08835819,6.61e-05,53.2156,134.0242,84.8871,275.2196,-5.918e-05,-1.229e-05,0.0,0 STARLINK-5176,1 54053U 22136C   23088.83564317 -.00001229  00000-0 -59180-4 0  9992,2 54053  53.2156 134.0242 0000661  84.8871 275.2196 15.08835819 24901,6917.893,95.438,540.215,539.301,0.0
54053.0,STARLINK-5176,PAYLOAD,2023-03-30 19:54:07,15.08839768,0.000125,53.2158,129.5632,77.7299,282.3833,0.00014925,2.088e-05,0.0,0 STARLINK-5176,1 54053U 22136C   23089.82924986  .00002088  00000-0  14925-3 0  9993,2 54053  53.2158 129.5632 0001250  77.7299 282.3833 15.08839768 24572,6917.881,95.438,540.611,538.881,0.0
54053.0,STARLINK-5176,PAYLOAD,2023-03-31 02:15:39,15.08839034,0.0001351,53.2165,128.3737,76.502,283.6122,0.00022274,3.259e-05,0.0,0 STARLINK-5176,1 54053U 22136C   23090.09421180  .00003259  00000-0  22274-3 0  9999,2 54053  53.2165 128.3737 0001351  76.5020 283.6122 15.08839034 25093,6917.883,95.438,540.683,538.814,0.0
54053.0,STARLINK-5176,PAYLOAD,2023-04-01 13:14:08,15.08847898,0.0001362,53.2153,121.8311,83.2647,276.85,0.00044205,6.756e-05,0.0,0 STARLINK-5176,1 54053U 22136C   23091.55149156  .00006756  00000-0  44205-3 0  9994,2 54053  53.2153 121.8311 0001362  83.2647 276.8500 15.08847898 25314,6917.856,95.437,540.663,538.779,0.0
54053.0,STARLINK-5176,PAYLOAD,2023-04-01 19:35:41,15.08843547,0.0001592,53.2151,120.6418,74.1634,285.9533,0.00031537,4.735e-05,0.0,0 STARLINK-5176,1 54053U 22136C   23091.81645402  .00004735  00000-0  31537-3 0  9997,2 54053  53.2151 120.6418 0001592  74.1634 285.9533 15.08843547 24871,6917.87,95.437,540.836,538.633,0.0
54053.0,STARLINK-5176,PAYLOAD,2023-04-02 08:18:46,15.08846843,0.0001513,53.2156,118.2616,78.0792,282.037,0.00041092,6.259e-05,0.0,0 STARLINK-5176,1 54053U 22136C   23092.34637275  .00006259  00000-0  41092-3 0  9995,2 54053  53.2156 118.2616 0001513  78.0792 282.0370 15.08846843 25432,6917.859,95.437,540.771,538.678,0.0
54053.0,STARLINK-5176,PAYLOAD,2023-04-02 13:04:55,15.08853351,0.0001515,53.216,117.3679,88.2861,271.8304,0.00049626,7.622e-05,0.0,0 STARLINK-5176,1 54053U 22136C   23092.54508953  .00007622  00000-0  49626-3 0  9993,2 54053  53.2160 117.3679 0001515  88.2861 271.8304 15.08853351 24982,6917.84,95.437,540.753,538.657,0.0
54053.0,STARLINK-5176,PAYLOAD,2023-04-03 04:58:47,15.08833181,0.0001266,53.2164,114.3973,85.2067,274.907,-4.7412e-05,-1.042e-05,0.0,0 STARLINK-5176,1 54053U 22136C   23093.20749679 -.00001042  00000-0 -47412-4 0  9993,2 54053  53.2164 114.3973 0001266  85.2067 274.9070 15.08833181 25566,6917.901,95.438,540.642,538.89,0.0
54053.0,STARLINK-5176,PAYLOAD,2023-04-03 11:20:20,15.08835965,0.0001306,53.2166,113.2072,84.4899,275.6242,3.8563e-05,3.26e-06,0.0,0 STARLINK-5176,1 54053U 22136C   23093.47245733  .00000326  00000-0  38563-4 0  9993,2 54053  53.2166 113.2072 0001306  84.4899 275.6242 15.08835965 25128,6917.893,95.438,540.661,538.854,0.0
54053.0,STARLINK-5176,PAYLOAD,2023-04-03 17:41:52,15.08840128,0.000128,53.2165,112.0181,85.8148,274.299,0.00011104,1.48e-05,0.0,0 STARLINK-5176,1 54053U 22136C   23093.73741680  .00001480  00000-0  11104-3 0  9997,2 54053  53.2165 112.0181 0001280  85.8148 274.2990 15.08840128 25164,6917.88,95.438,540.63,538.86,0.0
54053.0,STARLINK-5176,PAYLOAD,2023-04-04 06:24:57,15.08855695,0.0001085,53.2157,109.6388,92.0488,268.0628,0.00075929,0.00011822,0.0,0 STARLINK-5176,1 54053U 22136C   23094.26733370  .00011822  00000-0  75929-3 0  9999,2 54053  53.2157 109.6388 0001085  92.0488 268.0628 15.08855695 25722,6917.832,95.437,540.448,538.947,0.0
54053.0,STARLINK-5176,PAYLOAD,2023-04-04 09:35:43,15.08862146,0.0001085,53.2158,109.0439,93.8013,266.3103,0.0009288,0.00014534,0.0,0 STARLINK-5176,1 54053U 22136C   23094.39981192  .00014534  00000-0  92880-3 0  9998,2 54053  53.2158 109.0439 0001085  93.8013 266.3103 15.08862146 25264,6917.813,95.436,540.428,538.927,0.0
54053.0,STARLINK-5176,PAYLOAD,2023-04-05 04:40:21,15.08841852,9.93e-05,53.2149,105.4748,75.6972,284.4131,0.00019713,2.851e-05,0.0,0 STARLINK-5176,1 54053U 22136C   23095.19469536  .00002851  00000-0  19713-3 0  9993,2 54053  53.2149 105.4748 0000993  75.6972 284.4131 15.08841852 25865,6917.875,95.437,540.427,539.053,0.0
54053.0,STARLINK-5176,PAYLOAD,2023-04-05 11:01:54,15.08838538,0.0001043,53.2149,104.2848,82.097,278.014,6.8142e-05,7.97e-06,0.0,0 STARLINK-5176,1 54053U 22136C   23095.45965696  .00000797  00000-0  68142-4 0  9998,2 54053  53.2149 104.2848 0001043  82.0970 278.0140 15.08838538 25428,6917.885,95.438,540.471,539.028,0.0
54053.0,STARLINK-5176,PAYLOAD,2023-04-05 17:23:26,15.0884003,0.000102,53.2146,103.0958,82.4348,277.676,0.00017263,2.461e-05,0.0,0 STARLINK-5176,1 54053U 22136C   23095.72461727  .00002461  00000-0  17263-3 0  9991,2 54053  53.2146 103.0958 0001020  82.4348 277.6760 15.08840030 25469,6917.88,95.438,540.451,539.04,0.0
54053.0,STARLINK-5176,PAYLOAD,2023-04-06 09:17:18,15.08850153,0.0001089,53.2148,100.1213,81.4811,278.6305,0.00048443,7.432e-05,0.0,0 STARLINK-5176,1 54053U 22136C   23096.38701483  .00007432  00000-0  48443-3 0  9997,2 54053  53.2148 100.1213 0001089  81.4811 278.6305 15.08850153 26040,6917.849,95.437,540.468,538.961,0.0
54053.0,STARLINK-5176,PAYLOAD,2023-04-06 12:28:04,15.08853511,0.0001082,53.2149,99.5268,81.9638,278.1477,0.00052424,8.068e-05,0.0,0 STARLINK-5176,1 54053U 22136C   23096.51949331  .00008068  00000-0  52424-3 0  9998,2 54053  53.2149  99.5268 0001082  81.9638 278.1477 15.08853511 25581,6917.839,95.437,540.453,538.956,0.0
54053.0,STARLINK-5176,PAYLOAD,2023-04-06 17:14:13,15.08836627,4.96e-05,53.2151,98.6369,127.124,232.9797,0.0001332,1.833e-05,0.0,0 STARLINK-5176,1 54053U 22136C   23096.71821470  .00001833  00000-0  13320-3 0  9998,2 54053  53.2151  98.6369 0000496 127.1240 232.9797 15.08836627 26095,6917.891,95.438,540.099,539.413,0.0
54053.0,STARLINK-5176,PAYLOAD,2023-04-07 12:18:51,15.08850633,0.0001122,53.2146,95.0662,92.0817,268.0303,0.00054893,8.462e-05,0.0,0 STARLINK-5176,1 54053U 22136C   23097.51309384  .00008462  00000-0  54893-3 0  9997,2 54053  53.2146  95.0662 0001122  92.0817 268.0303 15.08850633 25739,6917.848,95.437,540.489,538.937,0.0
54053.0,STARLINK-5176,PAYLOAD,2023-04-08 05:48:06,15.08839304,9.97e-05,53.2151,91.7958,86.1394,273.9712,0.00041702,6.355e-05,0.0,0 STARLINK-5176,1 54053U 22136C   23098.24173976  .00006355  00000-0  41702-3 0  9998,2 54053  53.2151  91.7958 0000997  86.1394 273.9712 15.08839304 26326,6917.883,95.438,540.437,539.058,0.0
54053.0,STARLINK-5176,PAYLOAD,2023-04-09 10:25:02,15.08854766,0.000116,53.2158,86.4425,83.8225,276.2899,0.00063952,9.909e-05,0.0,0 STARLINK-5176,1 54053U 22136C   23099.43405748  .00009909  00000-0  63952-3 0  9994,2 54053  53.2158  86.4425 0001160  83.8225 276.2899 15.08854766 26504,6917.835,95.437,540.503,538.898,0.0
54053.0,STARLINK-5176,PAYLOAD,2023-04-10 08:40:26,15.08853322,0.0001202,53.2166,82.2794,94.1395,265.9734,0.00043886,6.706e-05,0.0,0 STARLINK-5176,1 54053U 22136C   23100.36141622  .00006706  00000-0  43886-3 0  9993,2 54053  53.2166  82.2794 0001202  94.1395 265.9734 15.08853322 26641,6917.84,95.437,540.536,538.873,0.0
54053.0,STARLINK-5176,PAYLOAD,2023-04-10 10:15:49,15.08855708,0.0001197,53.2169,81.9825,92.9422,267.1708,0.00049793,7.649e-05,0.0,0 STARLINK-5176,1 54053U 22136C   23100.42765537  .00007649  00000-0  49793-3 0  9997,2 54053  53.2169  81.9825 0001197  92.9422 267.1708 15.08855708 26178,6917.832,95.437,540.525,538.869,0.0
54053.0,STARLINK-5176,PAYLOAD,2023-04-11 10:06:36,15.08849256,0.0001217,53.2179,77.5227,102.0372,258.0757,0.00019728,2.854e-05,0.0,0 STARLINK-5176,1 54053U 22136C   23101.42125519  .00002854  00000-0  19728-3 0  9996,2 54053  53.2179  77.5227 0001217 102.0372 258.0757 15.08849256 26327,6917.852,95.437,540.559,538.875,0.0
54053.0,STARLINK-5176,PAYLOAD,2023-04-12 05:11:14,15.08834947,0.000141,53.2179,73.9575,108.276,251.8385,-1.1723e-05,-4.74e-06,0.0,0 STARLINK-5176,1 54053U 22136C   23102.21614464 -.00000474  00000-0 -11723-4 0  9992,2 54053  53.2179  73.9575 0001410 108.2760 251.8385 15.08834947 26922,6917.896,95.438,540.736,538.785,0.0
54053.0,STARLINK-5176,PAYLOAD,2023-04-12 06:46:38,15.08833355,0.0001279,53.2185,73.6597,104.5061,255.6073,2.9606e-05,1.83e-06,0.0,0 STARLINK-5176,1 54053U 22136C   23102.28238458  .00000183  00000-0  29606-4 0  9998,2 54053  53.2185  73.6597 0001279 104.5061 255.6073 15.08833355 26452,6917.901,95.438,540.65,538.881,0.0
54053.0,STARLINK-5176,PAYLOAD,2023-04-13 06:37:25,15.08842045,0.0001234,53.2176,69.1977,100.6367,259.4764,0.00031134,4.671e-05,0.0,0 STARLINK-5176,1 54053U 22136C   23103.27598748  .00004671  00000-0  31134-3 0  9993,2 54053  53.2176  69.1977 0001234 100.6367 259.4764 15.08842045 26603,6917.874,95.437,540.593,538.885,0.0
54053.0,STARLINK-5176,PAYLOAD,2023-04-13 14:34:20,15.08843445,0.0001197,53.2173,67.71,93.5845,266.5284,0.00037245,5.645e-05,0.0,0 STARLINK-5176,1 54053U 22136C   23103.60718724  .00005645  00000-0  37245-3 0  9999,2 54053  53.2173  67.7100 0001197  93.5845 266.5284 15.08843445 27131,6917.87,95.437,540.563,538.907,0.0
54053.0,STARLINK-5176,PAYLOAD,2023-04-14 08:03:35,15.08846662,0.0001304,53.2169,64.4378,84.0164,276.0977,0.00032034,4.815e-05,0.0,0 STARLINK-5176,1 54053U 22136C   23104.33582711  .00004815  00000-0  32034-3 0  9994,2 54053  53.2169  64.4378 0001304  84.0164 276.0977 15.08846662 26763,6917.86,95.437,540.627,538.823,0.0
54053.0,STARLINK-5176,PAYLOAD,2023-04-15 06:18:59,15.08854732,0.0001287,53.2167,60.274,94.079,266.0349,0.0004247,6.48e-05,0.0,0 STARLINK-5176,1 54053U 22136C   23105.26318413  .00006480  00000-0  42470-3 0  9998,2 54053  53.2167  60.2740 0001287  94.0790 266.0349 15.08854732 26909,6917.835,95.437,540.591,538.81,0.0
